{
    "links": {
        "self": "http://www.neowsapp.com/rest/v1/neo/3841503?api_key=iIulBulltgU6a56xZRHN4H3l9WmuAYTsLGpBGhQ2"
    },
    "id": "3841503",
    "neo_reference_id": "3841503",
    "name": "(2019 GM21)",
    "designation": "2019 GM21",
    "nasa_jpl_url": "http://ssd.jpl.nasa.gov/sbdb.cgi?sstr=3841503",
    "absolute_magnitude_h": 23.2,
    "estimated_diameter": {
        "kilometers": {
            "estimated_diameter_min": 0.0608912622,
            "estimated_diameter_max": 0.1361570015
        },
        "meters": {
            "estimated_diameter_min": 60.8912622106,
            "estimated_diameter_max": 136.1570015386
        },
        "miles": {
            "estimated_diameter_min": 0.0378360645,
            "estimated_diameter_max": 0.0846040122
        },
        "feet": {
            "estimated_diameter_min": 199.7744887109,
            "estimated_diameter_max": 446.7093369279
        }
    },
    "is_potentially_hazardous_asteroid": false,
    "close_approach_data": [
        {
            "close_approach_date": "2019-04-30",
            "close_approach_date_full": "2019-Apr-30 11:43",
            "epoch_date_close_approach": 1556624580000,
            "relative_velocity": {
                "kilometers_per_second": "9.6675931585",
                "kilometers_per_hour": "34803.3353706354",
                "miles_per_hour": "21625.4391362707"
            },
            "miss_distance": {
                "astronomical": "0.1308308103",
                "lunar": "50.8931852067",
                "kilometers": "19572010.551254061",
                "miles": "12161483.4210696018"
            },
            "orbiting_body": "Earth"
        }
    ],
    "orbital_data": {
        "orbit_id": "1",
        "orbit_determination_date": "2019-04-21 21:13:28",
        "first_observation_date": "2019-04-14",
        "last_observation_date": "2019-04-19",
        "data_arc_in_days": 5,
        "observations_used": 33,
        "orbit_uncertainty": "9",
        "minimum_orbit_intersection": ".0830863",
        "jupiter_tisserand_invariant": "3.687",
        "epoch_osculation": "2458589.5",
        "eccentricity": ".4566342502567601",
        "semi_major_axis": "1.996230907859501",
        "inclination": "11.34976078959092",
        "ascending_node_longitude": "41.36100526886431",
        "orbital_period": "1030.183501125795",
        "perihelion_distance": "1.084683503909706",
        "perihelion_argument": "195.5321565113375",
        "aphelion_distance": "2.907778311809295",
        "perihelion_time": "2458615.270555985966",
        "mean_anomaly": "350.9944197855922",
        "mean_motion": ".3494523059305341",
        "equinox": "J2000",
        "orbit_class": {
            "orbit_class_type": "AMO",
            "orbit_class_description": "Near-Earth asteroid orbits similar to that of 1221 Amor",
            "orbit_class_range": "1.017 AU < q (perihelion) < 1.3 AU"
        }
    },
    "is_sentry_object": false
}